ONEWEB-0634             
1 56075U 23043AF  26012.76377811  .00000092  00000+0  20912-3 0  9993
2 56075  87.9011 290.2544 0001465  84.7798 275.3499 13.15549066135969
ONEWEB-0635             
1 56076U 23043AG  26012.75902160  .00000104  00000+0  24321-3 0  9996
2 56076  87.9008 290.2083 0001905  70.3462 289.7874 13.15549379135998
ONEWEB-0636             
1 56077U 23043AH  26012.75109486  .00000139  00000+0  33575-3 0  9996
2 56077  87.9002 290.2267 0001838  72.3172 287.8158 13.15550018135976
ONEWEB-0637             
1 56078U 23043AJ  26012.74476278  .00000087  00000+0  19666-3 0  9999
2 56078  87.9004 290.2451 0001857  81.0409 279.0932 13.15545781135991
ONEWEB-0647             
1 56079U 23043AK  26012.74001372  .00000071  00000+0  15519-3 0  9995
2 56079  87.9005 290.2592 0001693  69.2932 290.8380 13.15548611135988
ONEWEB-0651             
1 56080U 23043AL  26012.73526425 -.00000004  00000+0 -45410-4 0  9999
2 56080  87.9006 290.2539 0001908  75.9873 284.1469 13.15548663137184
ONEWEB-0718             
1 56081U 23043AM  26012.73049350 -.00000011  00000+0 -62766-4 0  9998
2 56081  87.9012 290.2354 0001341  92.7897 267.3387 13.15547149135998
ONEWEB-0561             
1 56710U 23068A   26012.82060402  .00000020  00000+0  17332-4 0  9992
2 56710  87.9221 305.4418 0002041  67.2272 292.9077 13.20771863128991
